WEINA 1A                
1 43169U 18011A   18038.54999977  .00003002  00000-0  30902-3 0  9995
2 43169  34.9987 105.1790 0004276  19.9977 339.6568 14.89887132  1966
YAOGAN-30 K             
1 43170U 18011B   18038.83049531 -.00000087  00000-0 -61749-5 0  9998
2 43170  34.9983 103.6741 0006611 286.7656  73.2172 14.89457199  2000
YAOGAN-30 L             
1 43171U 18011C   18039.49519272  .00053577  00000-0  54866-2 0  9995
2 43171  34.9977  99.6316 0002938 330.3913  29.5495 14.89469460  2103
YAOGAN-30 M             
1 43172U 18011D   18039.82481711  .00000130  00000-0  16195-4 0  9991
2 43172  34.9986  97.5851 0003746  23.5230 336.5644 14.89462706  2154
CZ-2C R/B               
1 43173U 18011E   18039.57999286  .00000931  00000-0  30229-4 0  9998
2 43173  34.9679  94.5350 0151269 140.2807 220.9096 15.22193323  2180
AL YAH 3                
1 43174U 18012A   18039.74677179 -.00000075  00000-0  00000+0 0  9992
2 43174  21.5512 244.1569 6248229 209.6428 287.9794  1.42903233   252
SES-14                  
1 43175U 18012B   18039.88580120 -.00000094  00000-0  00000+0 0  9998
2 43175  19.1342 228.1522 7406435 238.8364 352.4715  1.69902640   258
ARIANE 5 R/B            
1 43176U 18012C   18034.56504917  .00008787  00000-0  11258-2 0  9995
2 43176  20.9624 232.3215 7638531 234.0245  29.7038  1.86621780   173
ARIANE 5 DEB [SYLDA]    
1 43177U 18012D   18038.97375072  .00015755  00000-0  43280-2 0  9996
2 43177  20.5780 230.9388 7641247 236.7895  30.3913  1.85073973   259
KANOPUS-V 3             
1 43180U 18014A   18039.80136552  .00000561  00000-0  29675-4 0  9996
2 43180  97.4656 309.6176 0003352  66.3979  18.5084 15.19432011  1161
KANOPUS-V 4             
1 43181U 18014B   18039.79647522  .00000505  00000-0  26446-4 0  9990
2 43181  97.4656 309.6233 0006986  67.0541  14.2352 15.20270485  1163
2018-014C               
1 43182U 18014C   18039.70594158  .00001237  00000-0  11625-3 0  9993
2 43182  97.7284 309.7581 0013041 219.6604 140.3695 14.95679136  1108
2018-014D               
1 43183U 18014D   18039.70581385  .00001148  00000-0  10820-3 0  9999
2 43183  97.7276 309.7550 0012285 220.6279 139.4023 14.95704306  1107
2018-014E               
1 43184U 18014E   18039.90643385  .00001062  00000-0  10042-3 0  9992
2 43184  97.7276 309.9556 0012723 219.8221 140.2049 14.95719510  1134
2018-014F               
1 43185U 18014F   18039.70545483  .00001219  00000-0  11441-3 0  9999
2 43185  97.7279 309.7561 0012192 222.1938 137.8336 14.95776230  1104
2018-014G               
1 43186U 18014G   18039.30119049  .00000566  00000-0  55107-4 0  9993
2 43186  97.7325 309.3797 0009477 215.5684 144.4947 14.96379357  1045
2018-014H               
1 43187U 18014H   18039.90300836  .00000774  00000-0  73458-4 0  9996
2 43187  97.7308 309.9714 0009839 211.5766 148.4870 14.96383004  1134
2018-014J               
1 43188U 18014J   18039.90300421  .00000743  00000-0  70657-4 0  9991
2 43188  97.7314 309.9720 0009030 215.9893 144.0711 14.96384452  1135
FENGMANIU-1 (FMN-1)     
1 43192U 18015A   18039.94432593  .00001711  00000-0  77251-4 0  9990
2 43192  97.3377 171.6919 0015450 230.3750 129.6123 15.22221062  1004
2018-015B               
1 43193U 18015B   18039.94309699  .00001530  00000-0  68821-4 0  9993
2 43193  97.2116 171.6159 0009188  44.1399 316.0561 15.22526941  1004
ZHANGZHENG-1            
1 43194U 18015C   18039.94257654  .00000578  00000-0  27799-4 0  9997
2 43194  97.3309 171.6878 0015785 237.7289 122.2415 15.22615997  1012
NUSAT-4 (ADA)           
1 43195U 18015D   18039.83267382  .00000937  00000-0  42882-4 0  9994
2 43195  97.3317 171.5850 0015909 241.2422 242.5971 15.22871498   997
GOMX4-B                 
1 43196U 18015E   18037.04860869 -.00000069  00000-0  50118-7 0  9996
2 43196  97.3277 168.8700 0017561 260.8130  99.1118 15.23570123   569
GOMX4-A                 
1 43197U 18015F   18039.83054242  .00000559  00000-0  26335-4 0  9990
2 43197  97.3277 171.5849 0017590 248.9594 236.8312 15.23452596   994
2018-015G               
1 43198U 18015G   18039.90853581  .00003130  00000-0  10484-3 0  9997
2 43198  97.2189 171.6651 0049658 277.2800  82.2801 15.30500658   990
SHAONIAN XING           
1 43199U 18015H   18039.87422209  .00001379  00000-0  61011-4 0  9999
2 43199  97.3147 171.6166 0016298 246.0592 113.8939 15.23234871  1002
2018-015J               
1 43200U 18015J   18039.91193618  .00002309  00000-0  81684-4 0  9998
2 43200  97.4403 171.7938 0032614 326.5086  33.4080 15.29732373   998
2018-016A               
1 43201U 18016A   18038.90041061  .00415154 -12146-5  96490-3 0  9998
2 43201  30.9001 237.3836 1200184 114.2264  23.1054 13.47212642   639
2018-016B               
1 43202U 18016B   18038.90141609  .00424616 -12080-5  97890-3 0  9993
2 43202  30.8997 237.4019 1205237 114.2019  12.8574 13.46155829   622
NUSAT-5 (MARYAM)        
1 43204U 18015K   18039.83222608  .00001000  00000-0  45530-4 0  9992
2 43204  97.3318 171.5846 0016279 240.6289 240.9091 15.22878343   596
TESLA ROADSTER          
1 43205U 18017A   18038.05572533  .00020608 -51169-6  11058-3 0  9994
2 43205  29.0165 287.1006 3403068 180.4827 179.1544  8.75117793    17
